OBJECT_NAME,OBJECT_ID,EPOCH,MEAN_MOTION,ECCENTRICITY,INCLINATION,RA_OF_ASC_NODE,ARG_OF_PERICENTER,MEAN_ANOMALY,EPHEMERIS_TYPE,CLASSIFICATION_TYPE,NORAD_CAT_ID,ELEMENT_SET_NO,REV_AT_EPOCH,BSTAR,MEAN_MOTION_DOT,MEAN_MOTION_DDOT
FLOCK 4BE-7,2024-149P,2026-07-20T23:37:22.503072,15.41637084,.00045122,97.3744,285.3725,134.5172,225.6444,0,U,60481,999,10745,.45877215E-3,.19264E-3,0
TOMORROW-S2,2024-149T,2026-07-20T18:47:44.011392,15.33189329,.00042319,97.3805,282.6795,135.2941,224.8643,0,U,60485,999,10723,.1504724E-3,.4746E-4,0
FLOCK 4BE-36,2024-149U,2026-07-21T03:49:17.592960,15.43669412,.0005137,97.3730,287.0169,136.3533,223.8122,0,U,60486,999,10759,.29870915E-3,.13387E-3,0
FLOCK 4BE-25,2024-149V,2026-07-21T03:39:04.275648,15.39647144,.00040131,97.3782,285.5516,129.8896,230.2703,0,U,60487,999,10746,.26144391E-3,.10231E-3,0
FLOCK 4BE-31,2024-149W,2026-07-21T03:45:43.866144,15.45310908,.00041069,97.3786,287.9764,136.0348,224.1229,0,U,60488,999,10762,.32977536E-3,.15638E-3,0
FLOCK 4BE-20,2024-149X,2026-07-20T05:19:20.854560,15.38888737,.00053423,97.3681,283.4099,139.6915,220.4727,0,U,60489,999,10729,.18300189E-3,.6959E-4,0
FLOCK 4BE-23,2024-149Y,2026-07-21T04:43:19.439328,15.38466373,.00050602,97.3765,284.7833,140.5506,219.6109,0,U,60490,999,10742,.27665307E-3,.10422E-3,0
FLOCK 4BE-17,2024-149AA,2026-07-21T03:11:39.662880,15.40688176,.00046616,97.3758,285.7910,131.8065,228.3581,0,U,60492,999,10748,.30027559E-3,.12178E-3,0
NUSAT-50 (NANCY ROMAN),2024-149AB,2026-07-21T04:10:47.286624,15.30383220,.00048512,97.3774,283.2041,87.9607,272.2189,0,U,60493,999,10732,.2347994E-3,.6825E-4,0
FLOCK 4BE-22,2024-149AC,2026-07-21T03:33:59.135040,15.42215829,.00050647,97.3718,286.0538,138.7121,221.4511,0,U,60494,999,10753,.75127947E-3,.32273E-3,0
FLOCK 4BE-34,2024-149AD,2026-07-21T03:59:37.314240,15.42068261,.00052758,97.3767,286.9148,145.4969,214.6621,0,U,60495,999,10756,.29133974E-3,.1237E-3,0
TYCHE,2024-149AE,2026-07-21T04:05:43.966464,15.25807077,.0003502,97.3739,279.5277,151.5175,208.6255,0,U,60496,999,10708,.12247237E-3,.3059E-4,0
FLOCK 4BE-32,2024-149AF,2026-07-21T01:06:45.148032,15.43218981,.00053553,97.3705,286.3647,143.0288,217.1330,0,U,60497,999,10755,.32131472E-3,.14192E-3,0
NUSAT-48 (HENRIETTA LEAVITT),2024-149AG,2026-07-20T18:30:16.854624,15.30330391,.00052174,97.3906,283.1047,142.6363,217.5242,0,U,60498,999,10727,.18711035E-3,.5414E-4,0
NUSAT-49 (KLARA DAN VON NEUMANN),2024-149AJ,2026-07-21T03:24:06.910560,15.29837634,.00030032,97.3766,283.1988,149.0426,211.0992,0,U,60500,999,10732,.77775756E-4,.2172E-4,0
FLOCK 4BE-11,2024-149AK,2026-07-21T03:40:19.142976,15.44015179,.00053292,97.3684,286.7343,142.1541,218.0083,0,U,60501,999,10759,.31962522E-3,.14502E-3,0
YAM-7,2024-149AN,2026-07-21T03:38:11.397984,15.32232498,.00042376,97.3768,282.2711,151.2330,208.9147,0,U,60504,999,10725,.17199054E-3,.5275E-4,0
FLOCK 4BE-24,2024-149AP,2026-07-21T03:15:33.008544,15.44253426,.00054762,97.3698,286.9890,152.9608,207.1926,0,U,60505,999,10760,.35018051E-3,.16029E-3,0
LUR-1,2024-149AQ,2026-07-21T04:19:22.419840,15.30495329,.00045667,97.3722,280.7691,163.0358,197.1036,0,U,60506,999,10717,.17600838E-3,.5114E-4,0
TANAGER-1,2024-149AR,2026-07-20T23:34:18.928128,15.43878726,.00019706,97.2316,296.0820,137.5704,222.5698,0,U,60507,999,10825,.6777668E-5,.223E-5,0
EAGLEEYE,2024-149AS,2026-07-20T19:03:13.889664,15.77837477,.00045093,97.3695,297.1618,174.2995,185.8323,0,U,60508,999,10822,.6333095E-3,.107332E-2,0
FLOCK 4BE-29,2024-149AT,2026-07-21T04:27:39.085920,15.45808063,.00041243,97.3794,288.6041,162.0588,198.0808,0,U,60509,999,10766,.7310765E-3,.3546E-3,0
TRANSPORTER-11 OBJECT AU,2024-149AU,2026-07-21T03:44:35.931552,15.41082585,.00047377,97.3716,286.1678,150.9951,209.1560,0,U,60510,999,10754,.27590115E-3,.11329E-3,0
FLOCK 4BE-2,2024-149AV,2026-07-20T23:31:55.353792,15.56404659,.00054763,97.3817,290.3344,157.8276,202.3216,0,U,60511,999,10775,.79713471E-3,.56508E-3,0
FLOCK 4BE-13,2024-149AW,2026-07-21T03:39:45.436608,15.42721630,.00054561,97.3708,286.9361,138.8058,221.3602,0,U,60512,999,10760,.25153101E-3,.10902E-3,0
FLOCK 4BE-27,2024-149AX,2026-07-21T00:47:57.924384,15.34982443,.0004476,97.3814,283.9121,163.6845,196.4543,0,U,60513,999,10733,.20902498E-3,.7014E-4,0
FLOCK 4BE-9,2024-149AY,2026-07-20T23:31:08.893920,15.41741990,.00040966,97.3780,286.6010,157.0272,203.1159,0,U,60514,999,10752,.32377054E-3,.13607E-3,0
